<?xml version="1.0" encoding="UTF-8"?>
<ndm xmlns:xsi="http://www.w3.org/2001/XMLSchema-instance" xsi:noNamespaceSchemaLocation="https://sanaregistry.org/r/ndmxml_unqualified/ndmxml-2.0.0-master-2.0.xsd">
<omm id="CCSDS_OMM_VERS" version="2.0">
<header><CREATION_DATE/><ORIGINATOR/></header><body><segment><metadata><OBJECT_NAME>ONEWEB-0047</OBJECT_NAME><OBJECT_ID>2020-008X</OBJECT_ID><CENTER_NAME>EARTH</CENTER_NAME><REF_FRAME>TEME</REF_FRAME><TIME_SYSTEM>UTC</TIME_SYSTEM><MEAN_ELEMENT_THEORY>SGP4</MEAN_ELEMENT_THEORY></metadata><data><meanElements><EPOCH>2024-03-02T19:18:14.447232</EPOCH><MEAN_MOTION>13.10358883</MEAN_MOTION><ECCENTRICITY>.0001753</ECCENTRICITY><INCLINATION>87.8959</INCLINATION><RA_OF_ASC_NODE>202.4288</RA_OF_ASC_NODE><ARG_OF_PERICENTER>99.2242</ARG_OF_PERICENTER><MEAN_ANOMALY>260.9084</MEAN_ANOMALY></meanElements><tleParameters><EPHEMERIS_TYPE>0</EPHEMERIS_TYPE><CLASSIFICATION_TYPE>U</CLASSIFICATION_TYPE><NORAD_CAT_ID>45152</NORAD_CAT_ID><ELEMENT_SET_NO>999</ELEMENT_SET_NO><REV_AT_EPOCH>19945</REV_AT_EPOCH><BSTAR>.88491E-2</BSTAR><MEAN_MOTION_DOT>.3102E-4</MEAN_MOTION_DOT><MEAN_MOTION_DDOT>0</MEAN_MOTION_DDOT></tleParameters></data></segment></body></omm>
<omm id="CCSDS_OMM_VERS" version="2.0">
<header><CREATION_DATE/><ORIGINATOR/></header><body><segment><metadata><OBJECT_NAME>ONEWEB-0048</OBJECT_NAME><OBJECT_ID>2020-008Y</OBJECT_ID><CENTER_NAME>EARTH</CENTER_NAME><REF_FRAME>TEME</REF_FRAME><TIME_SYSTEM>UTC</TIME_SYSTEM><MEAN_ELEMENT_THEORY>SGP4</MEAN_ELEMENT_THEORY></metadata><data><meanElements><EPOCH>2024-03-02T10:01:26.287104</EPOCH><MEAN_MOTION>13.10374502</MEAN_MOTION><ECCENTRICITY>.000169</ECCENTRICITY><INCLINATION>87.8960</INCLINATION><RA_OF_ASC_NODE>202.5191</RA_OF_ASC_NODE><ARG_OF_PERICENTER>103.2897</ARG_OF_PERICENTER><MEAN_ANOMALY>256.8419</MEAN_ANOMALY></meanElements><tleParameters><EPHEMERIS_TYPE>0</EPHEMERIS_TYPE><CLASSIFICATION_TYPE>U</CLASSIFICATION_TYPE><NORAD_CAT_ID>45153</NORAD_CAT_ID><ELEMENT_SET_NO>999</ELEMENT_SET_NO><REV_AT_EPOCH>19822</REV_AT_EPOCH><BSTAR>-.16146E-2</BSTAR><MEAN_MOTION_DOT>-.551E-5</MEAN_MOTION_DOT><MEAN_MOTION_DDOT>0</MEAN_MOTION_DDOT></tleParameters></data></segment></body></omm>
<omm id="CCSDS_OMM_VERS" version="2.0">
<header><CREATION_DATE/><ORIGINATOR/></header><body><segment><metadata><OBJECT_NAME>ONEWEB-0049</OBJECT_NAME><OBJECT_ID>2020-008Z</OBJECT_ID><CENTER_NAME>EARTH</CENTER_NAME><REF_FRAME>TEME</REF_FRAME><TIME_SYSTEM>UTC</TIME_SYSTEM><MEAN_ELEMENT_THEORY>SGP4</MEAN_ELEMENT_THEORY></metadata><data><meanElements><EPOCH>2024-03-02T10:03:47.124288</EPOCH><MEAN_MOTION>13.10371682</MEAN_MOTION><ECCENTRICITY>.000194</ECCENTRICITY><INCLINATION>87.8964</INCLINATION><RA_OF_ASC_NODE>202.4939</RA_OF_ASC_NODE><ARG_OF_PERICENTER>117.9754</ARG_OF_PERICENTER><MEAN_ANOMALY>242.1570</MEAN_ANOMALY></meanElements><tleParameters><EPHEMERIS_TYPE>0</EPHEMERIS_TYPE><CLASSIFICATION_TYPE>U</CLASSIFICATION_TYPE><NORAD_CAT_ID>45154</NORAD_CAT_ID><ELEMENT_SET_NO>999</ELEMENT_SET_NO><REV_AT_EPOCH>19844</REV_AT_EPOCH><BSTAR>-.16012E-2</BSTAR><MEAN_MOTION_DOT>-.546E-5</MEAN_MOTION_DOT><MEAN_MOTION_DDOT>0</MEAN_MOTION_DDOT></tleParameters></data></segment></body></omm>
<omm id="CCSDS_OMM_VERS" version="2.0">
<header><CREATION_DATE/><ORIGINATOR/></header><body><segment><metadata><OBJECT_NAME>ONEWEB-0051</OBJECT_NAME><OBJECT_ID>2020-008AA</OBJECT_ID><CENTER_NAME>EARTH</CENTER_NAME><REF_FRAME>TEME</REF_FRAME><TIME_SYSTEM>UTC</TIME_SYSTEM><MEAN_ELEMENT_THEORY>SGP4</MEAN_ELEMENT_THEORY></metadata><data><meanElements><EPOCH>2024-03-02T19:05:50.181216</EPOCH><MEAN_MOTION>13.11418448</MEAN_MOTION><ECCENTRICITY>.0001477</ECCENTRICITY><INCLINATION>87.9026</INCLINATION><RA_OF_ASC_NODE>187.3637</RA_OF_ASC_NODE><ARG_OF_PERICENTER>108.1546</ARG_OF_PERICENTER><MEAN_ANOMALY>251.9743</MEAN_ANOMALY></meanElements><tleParameters><EPHEMERIS_TYPE>0</EPHEMERIS_TYPE><CLASSIFICATION_TYPE>U</CLASSIFICATION_TYPE><NORAD_CAT_ID>45155</NORAD_CAT_ID><ELEMENT_SET_NO>999</ELEMENT_SET_NO><REV_AT_EPOCH>20224</REV_AT_EPOCH><BSTAR>.15652E-2</BSTAR><MEAN_MOTION_DOT>.567E-5</MEAN_MOTION_DOT><MEAN_MOTION_DDOT>0</MEAN_MOTION_DDOT></tleParameters></data></segment></body></omm>
<omm id="CCSDS_OMM_VERS" version="2.0">
<header><CREATION_DATE/><ORIGINATOR/></header><body><segment><metadata><OBJECT_NAME>ONEWEB-0052</OBJECT_NAME><OBJECT_ID>2020-008AB</OBJECT_ID><CENTER_NAME>EARTH</CENTER_NAME><REF_FRAME>TEME</REF_FRAME><TIME_SYSTEM>UTC</TIME_SYSTEM><MEAN_ELEMENT_THEORY>SGP4</MEAN_ELEMENT_THEORY></metadata><data><meanElements><EPOCH>2024-03-02T09:59:05.872416</EPOCH><MEAN_MOTION>13.10372794</MEAN_MOTION><ECCENTRICITY>.0002088</ECCENTRICITY><INCLINATION>87.8954</INCLINATION><RA_OF_ASC_NODE>202.4735</RA_OF_ASC_NODE><ARG_OF_PERICENTER>117.2980</ARG_OF_PERICENTER><MEAN_ANOMALY>242.8360</MEAN_ANOMALY></meanElements><tleParameters><EPHEMERIS_TYPE>0</EPHEMERIS_TYPE><CLASSIFICATION_TYPE>U</CLASSIFICATION_TYPE><NORAD_CAT_ID>45156</NORAD_CAT_ID><ELEMENT_SET_NO>999</ELEMENT_SET_NO><REV_AT_EPOCH>19835</REV_AT_EPOCH><BSTAR>-.17874E-2</BSTAR><MEAN_MOTION_DOT>-.611E-5</MEAN_MOTION_DOT><MEAN_MOTION_DDOT>0</MEAN_MOTION_DDOT></tleParameters></data></segment></body></omm>
<omm id="CCSDS_OMM_VERS" version="2.0">
<header><CREATION_DATE/><ORIGINATOR/></header><body><segment><metadata><OBJECT_NAME>ONEWEB-0053</OBJECT_NAME><OBJECT_ID>2020-008AC</OBJECT_ID><CENTER_NAME>EARTH</CENTER_NAME><REF_FRAME>TEME</REF_FRAME><TIME_SYSTEM>UTC</TIME_SYSTEM><MEAN_ELEMENT_THEORY>SGP4</MEAN_ELEMENT_THEORY></metadata><data><meanElements><EPOCH>2024-03-02T09:33:22.487616</EPOCH><MEAN_MOTION>13.10370983</MEAN_MOTION><ECCENTRICITY>.0001908</ECCENTRICITY><INCLINATION>87.8944</INCLINATION><RA_OF_ASC_NODE>202.5259</RA_OF_ASC_NODE><ARG_OF_PERICENTER>110.0835</ARG_OF_PERICENTER><MEAN_ANOMALY>250.0498</MEAN_ANOMALY></meanElements><tleParameters><EPHEMERIS_TYPE>0</EPHEMERIS_TYPE><CLASSIFICATION_TYPE>U</CLASSIFICATION_TYPE><NORAD_CAT_ID>45157</NORAD_CAT_ID><ELEMENT_SET_NO>999</ELEMENT_SET_NO><REV_AT_EPOCH>19832</REV_AT_EPOCH><BSTAR>.59876E-4</BSTAR><MEAN_MOTION_DOT>.34E-6</MEAN_MOTION_DOT><MEAN_MOTION_DDOT>0</MEAN_MOTION_DDOT></tleParameters></data></segment></body></omm>
<omm id="CCSDS_OMM_VERS" version="2.0">
<header><CREATION_DATE/><ORIGINATOR/></header><body><segment><metadata><OBJECT_NAME>ONEWEB-0054</OBJECT_NAME><OBJECT_ID>2020-008AD</OBJECT_ID><CENTER_NAME>EARTH</CENTER_NAME><REF_FRAME>TEME</REF_FRAME><TIME_SYSTEM>UTC</TIME_SYSTEM><MEAN_ELEMENT_THEORY>SGP4</MEAN_ELEMENT_THEORY></metadata><data><meanElements><EPOCH>2024-03-02T10:24:50.970528</EPOCH><MEAN_MOTION>13.10375574</MEAN_MOTION><ECCENTRICITY>.000165</ECCENTRICITY><INCLINATION>87.8959</INCLINATION><RA_OF_ASC_NODE>202.5043</RA_OF_ASC_NODE><ARG_OF_PERICENTER>104.9672</ARG_OF_PERICENTER><MEAN_ANOMALY>255.1638</MEAN_ANOMALY></meanElements><tleParameters><EPHEMERIS_TYPE>0</EPHEMERIS_TYPE><CLASSIFICATION_TYPE>U</CLASSIFICATION_TYPE><NORAD_CAT_ID>45158</NORAD_CAT_ID><ELEMENT_SET_NO>999</ELEMENT_SET_NO><REV_AT_EPOCH>19844</REV_AT_EPOCH><BSTAR>.27886E-3</BSTAR><MEAN_MOTION_DOT>.11E-5</MEAN_MOTION_DOT><MEAN_MOTION_DDOT>0</MEAN_MOTION_DDOT></tleParameters></data></segment></body></omm>
<omm id="CCSDS_OMM_VERS" version="2.0">
<header><CREATION_DATE/><ORIGINATOR/></header><body><segment><metadata><OBJECT_NAME>ONEWEB-0056</OBJECT_NAME><OBJECT_ID>2020-008AE</OBJECT_ID><CENTER_NAME>EARTH</CENTER_NAME><REF_FRAME>TEME</REF_FRAME><TIME_SYSTEM>UTC</TIME_SYSTEM><MEAN_ELEMENT_THEORY>SGP4</MEAN_ELEMENT_THEORY></metadata><data><meanElements><EPOCH>2024-03-02T09:56:45.500064</EPOCH><MEAN_MOTION>13.10373073</MEAN_MOTION><ECCENTRICITY>.0001821</ECCENTRICITY><INCLINATION>87.8955</INCLINATION><RA_OF_ASC_NODE>202.5035</RA_OF_ASC_NODE><ARG_OF_PERICENTER>103.4473</ARG_OF_PERICENTER><MEAN_ANOMALY>256.6858</MEAN_ANOMALY></meanElements><tleParameters><EPHEMERIS_TYPE>0</EPHEMERIS_TYPE><CLASSIFICATION_TYPE>U</CLASSIFICATION_TYPE><NORAD_CAT_ID>45159</NORAD_CAT_ID><ELEMENT_SET_NO>999</ELEMENT_SET_NO><REV_AT_EPOCH>19859</REV_AT_EPOCH><BSTAR>-.17177E-2</BSTAR><MEAN_MOTION_DOT>-.587E-5</MEAN_MOTION_DOT><MEAN_MOTION_DDOT>0</MEAN_MOTION_DDOT></tleParameters></data></segment></body></omm>
<omm id="CCSDS_OMM_VERS" version="2.0">
<header><CREATION_DATE/><ORIGINATOR/></header><body><segment><metadata><OBJECT_NAME>ONEWEB-0057</OBJECT_NAME><OBJECT_ID>2020-008AF</OBJECT_ID><CENTER_NAME>EARTH</CENTER_NAME><REF_FRAME>TEME</REF_FRAME><TIME_SYSTEM>UTC</TIME_SYSTEM><MEAN_ELEMENT_THEORY>SGP4</MEAN_ELEMENT_THEORY></metadata><data><meanElements><EPOCH>2024-03-02T10:06:08.815968</EPOCH><MEAN_MOTION>13.10374911</MEAN_MOTION><ECCENTRICITY>.000172</ECCENTRICITY><INCLINATION>87.8960</INCLINATION><RA_OF_ASC_NODE>202.4999</RA_OF_ASC_NODE><ARG_OF_PERICENTER>99.8792</ARG_OF_PERICENTER><MEAN_ANOMALY>260.2530</MEAN_ANOMALY></meanElements><tleParameters><EPHEMERIS_TYPE>0</EPHEMERIS_TYPE><CLASSIFICATION_TYPE>U</CLASSIFICATION_TYPE><NORAD_CAT_ID>45160</NORAD_CAT_ID><ELEMENT_SET_NO>999</ELEMENT_SET_NO><REV_AT_EPOCH>19876</REV_AT_EPOCH><BSTAR>-.14424E-2</BSTAR><MEAN_MOTION_DOT>-.491E-5</MEAN_MOTION_DOT><MEAN_MOTION_DDOT>0</MEAN_MOTION_DDOT></tleParameters></data></segment></body></omm>

</ndm>
